{
  "norad_id": 67156,
  "name": "KUIPER-00251",
  "history": [
    {
      "epoch": "2026-03-28T22:00:01.999584Z",
      "apogee_km": 550.218721863439,
      "perigee_km": 537.6521147123831,
      "latitude_deg": 51.11506211376993,
      "longitude_deg": -77.47025707949503,
      "height_km": 544.0547581703711,
      "semi_major_axis_km": 6922.07241828791,
      "eccentricity": 0.00090772,
      "inclination_deg": 51.8924,
      "raan_deg": 334.1533,
      "arg_perigee_deg": 121.091,
      "mean_anomaly_deg": 338.1436,
      "mean_motion_rev_day": 15.0746957
    },
    {
      "epoch": "2026-03-29T04:00:01.999584Z",
      "apogee_km": 551.4454045319535,
      "perigee_km": 539.2503782442627,
      "latitude_deg": 12.901674625955616,
      "longitude_deg": 96.70442758427819,
      "height_km": 546.9480097826552,
      "semi_major_axis_km": 6923.484891388108,
      "eccentricity": 0.0008807,
      "inclination_deg": 51.8936,
      "raan_deg": 332.9975,
      "arg_perigee_deg": 121.7749,
      "mean_anomaly_deg": 254.8033,
      "mean_motion_rev_day": 15.07008281
    },
    {
      "epoch": "2026-03-30T04:00:01.999584Z",
      "apogee_km": 556.8718323142348,
      "perigee_km": 544.2235184393348,
      "latitude_deg": 31.58007021262441,
      "longitude_deg": 109.4717253292279,
      "height_km": 551.4294728522884,
      "semi_major_axis_km": 6928.684675376785,
      "eccentricity": 0.00091275,
      "inclination_deg": 51.887,
      "raan_deg": 328.3838,
      "arg_perigee_deg": 123.0646,
      "mean_anomaly_deg": 278.6205,
      "mean_motion_rev_day": 15.05312148
    },
    {
      "epoch": "2026-03-30T14:00:03.000384Z",
      "apogee_km": 559.9022746999372,
      "perigee_km": 547.3282147630389,
      "latitude_deg": 30.551242160099076,
      "longitude_deg": 81.05714758324004,
      "height_km": 549.1180580178832,
      "semi_major_axis_km": 6931.752244731488,
      "eccentricity": 0.00090699,
      "inclination_deg": 51.8877,
      "raan_deg": 326.4609,
      "arg_perigee_deg": 127.8248,
      "mean_anomaly_deg": 12.0483,
      "mean_motion_rev_day": 15.0431302
    },
    {
      "epoch": "2026-03-30T22:00:00.999936Z",
      "apogee_km": 561.2736373050257,
      "perigee_km": 549.9846339842597,
      "latitude_deg": 26.838439476137133,
      "longitude_deg": -36.626937818276225,
      "height_km": 551.3744019457451,
      "semi_major_axis_km": 6933.766135644642,
      "eccentricity": 0.00081406,
      "inclination_deg": 51.889,
      "raan_deg": 324.9273,
      "arg_perigee_deg": 126.1876,
      "mean_anomaly_deg": 18.8771,
      "mean_motion_rev_day": 15.03657683
    },
    {
      "epoch": "2026-03-31T20:00:01.999008Z",
      "apogee_km": 570.5318725115185,
      "perigee_km": 558.7000329294933,
      "latitude_deg": 45.67340909954095,
      "longitude_deg": -115.52428709974104,
      "height_km": 566.9187840373954,
      "semi_major_axis_km": 6942.752952720506,
      "eccentricity": 0.0008521,
      "inclination_deg": 51.9022,
      "raan_deg": 320.7211,
      "arg_perigee_deg": 131.0888,
      "mean_anomaly_deg": 294.0676,
      "mean_motion_rev_day": 15.00739088
    },
    {
      "epoch": "2026-04-01T20:00:01.999008Z",
      "apogee_km": 573.1990915222814,
      "perigee_km": 561.6236406153912,
      "latitude_deg": 47.63821063681231,
      "longitude_deg": -115.239061452804,
      "height_km": 569.7648426341849,
      "semi_major_axis_km": 6945.548366068836,
      "eccentricity": 0.0008333,
      "inclination_deg": 51.8897,
      "raan_deg": 316.1486,
      "arg_perigee_deg": 130.6017,
      "mean_anomaly_deg": 299.0191,
      "mean_motion_rev_day": 14.99833163
    },
    {
      "epoch": "2026-04-02T20:00:01.999008Z",
      "apogee_km": 581.8276929579542,
      "perigee_km": 570.859086487284,
      "latitude_deg": 46.07700899227219,
      "longitude_deg": -125.56347940299929,
      "height_km": 579.1979824111917,
      "semi_major_axis_km": 6954.480389722619,
      "eccentricity": 0.0007886,
      "inclination_deg": 51.9111,
      "raan_deg": 311.5859,
      "arg_perigee_deg": 135.1219,
      "mean_anomaly_deg": 290.8763,
      "mean_motion_rev_day": 14.96944613
    },
    {
      "epoch": "2026-04-02T22:00:01.999584Z",
      "apogee_km": 581.5174498363376,
      "perigee_km": 570.4722022570277,
      "latitude_deg": 19.21045603718152,
      "longitude_deg": -45.81941436765474,
      "height_km": 571.0997022974792,
      "semi_major_axis_km": 6954.131826046682,
      "eccentricity": 0.00079415,
      "inclination_deg": 51.9121,
      "raan_deg": 311.207,
      "arg_perigee_deg": 134.5178,
      "mean_anomaly_deg": 20.7904,
      "mean_motion_rev_day": 14.97057162
    },
    {
      "epoch": "2026-04-03T20:00:01.999008Z",
      "apogee_km": 587.7126655278198,
      "perigee_km": 576.1422543696008,
      "latitude_deg": 40.68607574068664,
      "longitude_deg": -143.0181026812033,
      "height_km": 584.7801110718046,
      "semi_major_axis_km": 6960.0644599487105,
      "eccentricity": 0.0008312,
      "inclination_deg": 51.8931,
      "raan_deg": 307.0396,
      "arg_perigee_deg": 138.2677,
      "mean_anomaly_deg": 277.5454,
      "mean_motion_rev_day": 14.95143473
    },
    {
      "epoch": "2026-04-04T20:00:01.999008Z",
      "apogee_km": 594.7267999110609,
      "perigee_km": 583.668246555786,
      "latitude_deg": 28.465499068185064,
      "longitude_deg": -165.63150660015376,
      "height_km": 592.0759622058962,
      "semi_major_axis_km": 6967.334523233423,
      "eccentricity": 0.0007936,
      "inclination_deg": 51.8933,
      "raan_deg": 302.5063,
      "arg_perigee_deg": 143.557,
      "mean_anomaly_deg": 253.6898,
      "mean_motion_rev_day": 14.92803923
    },
    {
      "epoch": "2026-04-05T14:00:03.000384Z",
      "apogee_km": 600.3434203692741,
      "perigee_km": 589.4653363581992,
      "latitude_deg": 48.77989717708931,
      "longitude_deg": 12.309547388628578,
      "height_km": 596.4379085936747,
      "semi_major_axis_km": 6973.041378363737,
      "eccentricity": 0.00078001,
      "inclination_deg": 51.8954,
      "raan_deg": 299.1209,
      "arg_perigee_deg": 151.8698,
      "mean_anomaly_deg": 315.6897,
      "mean_motion_rev_day": 14.90971694
    },
    {
      "epoch": "2026-04-05T20:00:03.000384Z",
      "apogee_km": 601.4132430695145,
      "perigee_km": 591.6724052271084,
      "latitude_deg": 7.840967194254323,
      "longitude_deg": 170.01306098055628,
      "height_km": 599.6234154986679,
      "semi_major_axis_km": 6974.679824148311,
      "eccentricity": 0.0006983,
      "inclination_deg": 51.8956,
      "raan_deg": 297.9929,
      "arg_perigee_deg": 138.1933,
      "mean_anomaly_deg": 231.8894,
      "mean_motion_rev_day": 14.90446351
    },
    {
      "epoch": "2026-04-06T06:00:02.000160Z",
      "apogee_km": 603.416185679901,
      "perigee_km": 593.9406935587376,
      "latitude_deg": 51.870660397326,
      "longitude_deg": 95.08438393735115,
      "height_km": 602.1096050485844,
      "semi_major_axis_km": 6976.8154396193195,
      "eccentricity": 0.00067907,
      "inclination_deg": 51.8972,
      "raan_deg": 296.1182,
      "arg_perigee_deg": 141.26,
      "mean_anomaly_deg": 304.7983,
      "mean_motion_rev_day": 14.89762061
    },
    {
      "epoch": "2026-04-07T20:00:00.999360Z",
      "apogee_km": 616.8502160656444,
      "perigee_km": 608.1035599689567,
      "latitude_deg": -48.02288399101646,
      "longitude_deg": 92.81413512496925,
      "height_km": 632.0507437775764,
      "semi_major_axis_km": 6990.6138880173,
      "eccentricity": 0.0006256,
      "inclination_deg": 51.899,
      "raan_deg": 289.0162,
      "arg_perigee_deg": 151.9355,
      "mean_anomaly_deg": 137.5991,
      "mean_motion_rev_day": 14.8535338
    },
    {
      "epoch": "2026-04-08T14:00:04.999680Z",
      "apogee_km": 621.2492713480779,
      "perigee_km": 611.5249243852959,
      "latitude_deg": -14.01900083137749,
      "longitude_deg": -132.42786191265037,
      "height_km": 624.8186975132812,
      "semi_major_axis_km": 6994.524097866687,
      "eccentricity": 0.00069514,
      "inclination_deg": 51.9008,
      "raan_deg": 285.6644,
      "arg_perigee_deg": 154.6078,
      "mean_anomaly_deg": 187.6702,
      "mean_motion_rev_day": 14.84107999
    },
    {
      "epoch": "2026-04-09T20:00:01.999008Z",
      "apogee_km": 621.7844656274747,
      "perigee_km": 617.4402628221642,
      "latitude_deg": -2.3891136135117654,
      "longitude_deg": -36.11652231639085,
      "height_km": 618.6395442792904,
      "semi_major_axis_km": 6997.749364224819,
      "eccentricity": 0.0003104,
      "inclination_deg": 51.9008,
      "raan_deg": 280.1032,
      "arg_perigee_deg": 164.6027,
      "mean_anomaly_deg": 18.3082,
      "mean_motion_rev_day": 14.83082078
    },
    {
      "epoch": "2026-04-10T12:00:02.000160Z",
      "apogee_km": 621.8187853567524,
      "perigee_km": 620.4973184509527,
      "latitude_deg": 27.42574707144187,
      "longitude_deg": 54.527789030963234,
      "height_km": 621.9933655283386,
      "semi_major_axis_km": 6999.295051903852,
      "eccentricity": 9.44e-05,
      "inclination_deg": 51.9003,
      "raan_deg": 277.1397,
      "arg_perigee_deg": 84.5991,
      "mean_anomaly_deg": 59.6809,
      "mean_motion_rev_day": 14.82590831
    }
  ]
}